[Satellite]
VERSION=1.1
NAME=BGUSAT
NICKNAME=BGUSAT
TLE1=1 41999U 17008BD  22342.43621658  .00109807  00000+0  14361-2 0  9997
TLE2=2 41999  97.2605  53.6644 0002019 308.2581  51.8493 15.58255539323545
STATUS=0
